ESTCUBE 1               
1 39161U 13021C   22347.67443318  .00001597  00000+0  25402-3 0  9998
2 39161  97.8931  60.1450 0008568 203.3308 156.7517 14.73354631515854
FENGYUN 3C              
1 39260U 13052A   22347.75735426  .00000096  00000+0  69236-4 0  9992
2 39260  98.4402   6.6743 0012068 115.0983 245.1426 14.15966267477299
CASSIOPE                
1 39265U 13055A   22347.49949647  .00020992  00000+0  53866-3 0  9991
2 39265  80.9634  76.9048 0603608 145.9274 218.2260 14.43540315478118
ZACUBE-1 (TSHEPISOSAT)  
1 39417U 13066B   22347.61351444  .00001971  00000+0  24154-3 0  9992
2 39417  97.6618 311.3317 0056771 175.4844 184.6894 14.83121310489679
CINEMA-3 (KHUSAT-2)     
1 39426U 13066L   22347.33122686  .00001839  00000+0  28673-3 0  9998
2 39426  97.8160 279.6498 0103284  23.4911 337.0965 14.70547622485558
TRITON-1                
1 39427U 13066M   22347.31437630  .00002437  00000+0  38074-3 0  9996
2 39427  97.8269 275.4783 0112112  53.2135 307.9297 14.69536537485048
DELFI-N3XT              
1 39428U 13066N   22347.52847164  .00003523  00000+0  53465-3 0  9995
2 39428  97.8263 274.3632 0116949  65.1137 296.2173 14.70131139485011
GOMX-1                  
1 39430U 13066Q   22347.75864901  .00001660  00000+0  30116-3 0  9999
2 39430  97.7963 244.6245 0147315 198.8904 160.6796 14.60717789482468
BRITE-PL1 (LEM)         
1 39431U 13066R   22347.27871216  .00000451  00000+0  10467-3 0  9998
2 39431  97.6805 184.9479 0201876  34.7537 326.6654 14.47522159478238
ICUBE-1                 
1 39432U 13066S   22347.46322606  .00003831  00000+0  37058-3 0  9994
2 39432  97.4750 342.1122 0031306  28.3429 331.9486 14.92971061491403
HUMSAT-D                
1 39433U 13066T   22347.26345639  .00005107  00000+0  45960-3 0  9993
2 39433  97.4500 349.7079 0028843   1.1895 358.9390 14.95725861491938
VELOX-PII               
1 39438U 13066Y   22347.63028859  .00001925  00000+0  25465-3 0  9993
2 39438  97.7185 302.8294 0067226 232.4512 127.0581 14.79532520488626
FIRST-MOVE              
1 39439U 13066Z   22347.65815218  .00004620  00000+0  52021-3 0  9992
2 39439  97.6603 314.3152 0060736 168.7077 191.5518 14.85770041489736
CUBEBUG-2 (LO-74)       
1 39440U 13066AA  22347.40447297  .00002604  00000+0  35341-3 0  9991
2 39440  97.7509 297.7191 0076168 271.0820  88.1665 14.77723929486703
NEE-02 KRYSAOR          
1 39441U 13066AB  22347.57001981  .00001976  00000+0  27878-3 0  9993
2 39441  97.7619 294.9414 0078447 285.7044  73.5522 14.76250751487613
FUNCUBE-1 (AO-73)       
1 39444U 13066AE  22347.62614410  .00002404  00000+0  28469-3 0  9993
2 39444  97.6489 313.7848 0055731 162.3560 197.9608 14.84370092488689
HINCUBE                 
1 39445U 13066AF  22347.63458021  .00002329  00000+0  27734-3 0  9999
2 39445  97.6505 313.5925 0055758 164.7337 195.5576 14.84156880488214
UWE-3                   
1 39446U 13066AG  22347.11525755  .00002119  00000+0  27467-3 0  9992
2 39446  97.7114 303.7599 0066394 225.9625 133.6107 14.80313335486888
AIST-1 (RS-41)          
1 39492U 13078C   22347.72647739  .00001554  00000+0  16303-3 0  9999
2 39492  82.4203  65.0516 0018254 229.6484 130.3152 14.88810182486459
SPROUT                  
1 39770U 14029E   22347.57355027  .00012111  00000+0  11474-2 0  9998
2 39770  97.9566 106.1032 0008001 208.5285 151.5497 14.93729268464379
UNISAT-6                
1 40012U 14033C   22347.45996023  .00001835  00000+0  27059-3 0  9996
2 40012  97.6604 165.9543 0055696 299.7637  59.8039 14.75435482456370
BUGSAT-1 (TITA)         
1 40014U 14033E   22347.93046293  .00002674  00000+0  23268-3 0  9996
2 40014  98.1455 353.8030 0030224 160.1859 200.0543 14.97538988462992
DUCHIFAT-1              
1 40021U 14033M   22347.63000029  .00005537  00000+0  52004-3 0  9999
2 40021  98.0364 301.4448 0012142 160.4199 199.7489 14.94317295461444
NANOSATC-BR1            
1 40024U 14033Q   22347.58411248  .00003832  00000+0  37465-3 0  9995
2 40024  98.0066 293.7704 0011386 169.2222 190.9243 14.92921944461213
QB50P1                  
1 40025U 14033R   22347.58666404  .00003833  00000+0  38840-3 0  9991
2 40025  97.9787 286.6190 0011539 179.2683 180.8554 14.91485354460967
DTUSAT-2                
1 40030U 14033W   22347.30671201  .00003677  00000+0  37867-3 0  9992
2 40030  97.9522 280.9850 0011085 177.1567 182.9716 14.90858021460286
QB50P2                  
1 40032U 14033Y   22347.55035327  .00002922  00000+0  30235-3 0  9998
2 40032  97.9521 281.2464 0011050 177.8290 182.2977 14.90839922460296
POLYITAN-1              
1 40042U 14033AJ  22347.58770401  .00004541  00000+0  45604-3 0  9996
2 40042  97.9895 288.0836 0013703 172.3741 187.7688 14.91727711460345
TIGRISAT                
1 40043U 14033AK  22347.77155969  .00001477  00000+0  21888-3 0  9997
2 40043  97.6540 167.4281 0057557 295.9989  63.5299 14.75433495456366
AISAT                   
1 40054U 14034B   22347.45055345  .00003993  00000+0  52531-3 0  9996
2 40054  98.3645 166.2759 0013122 101.1496 259.1191 14.80737715455956
CANX-4                  
1 40055U 14034C   22347.69881860  .00001086  00000+0  16647-3 0  9991
2 40055  98.3730 150.7737 0014731 143.9854 216.2350 14.75758647455182
CANX-5                  
1 40056U 14034D   22347.43457173  .00001108  00000+0  16972-3 0  9996
2 40056  98.3732 150.4802 0014724 144.9144 215.3037 14.75756365445928
VELOX-I                 
1 40057U 14034E   22347.73753279  .00003108  00000+0  41835-3 0  9994
2 40057  98.3691 167.6436 0011468 114.1950 246.0468 14.79958626455986
METEOR-M 2              
1 40069U 14037A   22347.77104279  .00000034  00000+0  34743-4 0  9990
2 40069  98.4262 357.3493 0006122 151.2622 208.8886 14.20729716437324
DX1                     
1 40071U 14037C   22347.72893508  .00001249  00000+0  16391-3 0  9995
2 40071  98.3820 225.1381 0009479  99.4350 260.7941 14.82192753455897
UKUBE-1                 
1 40074U 14037F   22347.42851558  .00003319  00000+0  38455-3 0  9999
2 40074  98.3588 237.2973 0005447  70.3997 289.7811 14.86210464456643
FIREBIRD 3              
1 40377U 15003B   22347.29046616  .00029148  00000+0  70055-3 0  9995
2 40377  99.0782 252.8244 0085615 135.0590 225.7622 15.37488870435811
FIREBIRD 4              
1 40378U 15003C   22347.30419796  .00029304  00000+0  70190-3 0  9995
2 40378  99.0790 253.1004 0085541 134.4899 226.3375 15.37595050435824
GRIFEX                  
1 40379U 15003D   22347.24377068  .00016514  00000+0  51968-3 0  9995
2 40379  99.0858 236.5924 0104789 184.9833 175.0368 15.27775428434874
CP10 (EXOCUBE)          
1 40380U 15003E   22347.21271110  .00012757  00000+0  45332-3 0  9998
2 40380  99.0957 228.3473 0114981 213.0239 146.3776 15.23072848434330
DEORBITSAIL             
1 40719U 15032E   22347.28177624  .00003355  00000+0  45650-3 0  9995
2 40719  97.7563 219.5030 0016192 139.2705 220.9721 14.79314388400315
NUDT-PHONESAT           
1 40900U 15049B   22347.79596846  .00065393  00000+0  11981-2 0  9991
2 40900  97.3853   7.9736 0007731  15.4477  98.6122 15.49063151402232
XW-2A                   
1 40903U 15049E   22347.81249534  .00051121  00000+0  53450-3 0  9998
2 40903  97.1525  47.4542 0007912 160.9482 306.0571 15.64276972407183
XW-2C                   
1 40906U 15049H   22347.79014483  .00008129  00000+0  36630-3 0  9992
2 40906  97.4957 350.0471 0014958  91.8462 356.2460 15.21211545400163
XW-2D                   
1 40907U 15049J   22347.80158199  .00009488  00000+0  41496-3 0  9993
2 40907  97.4938 350.2265 0014247  87.3164  85.3299 15.22192803400229
LILACSAT-2              
1 40908U 15049K   22347.78721275  .00004464  00000+0  22871-3 0  9997
2 40908  97.5218 346.7924 0016399 111.8203 326.2520 15.16986916399669
XW-2E                   
1 40909U 15049L   22347.77448904  .00015570  00000+0  58072-3 0  9994
2 40909  97.4614 355.2298 0012922  65.3133  20.9761 15.27431350400747
XW-2F                   
1 40910U 15049M   22347.82980385  .00015400  00000+0  58394-3 0  9995
2 40910  97.4710 354.4663 0013774  66.6883  11.9936 15.26877341400517
XW-2B                   
1 40911U 15049N   22347.82405858  .00009239  00000+0  40591-3 0  9996
2 40911  97.4925 350.7839 0014057  88.1790 350.1441 15.22051562400111
KAITUO 1B               
1 40912U 15049P   22347.77433824  .00018345  00000+0  62082-3 0  9992
2 40912  97.4308 358.7712 0012824  34.6831  75.7328 15.30579313401132
TIANWANG 1A (TW-1A)     
1 40928U 15051D   22347.82676906  .00422875  74889-4  10007-2 0  9995
2 40928  97.0063  11.5645 0005785  86.9795  87.2438 15.96737709406399
LAPAN-A2                
1 40931U 15052B   22346.46317429  .00001220  00000+0  80256-4 0  9992
2 40931   6.0003 339.1791 0011955 172.1192 187.9341 14.76941095389701
LQSAT                   
1 40958U 15057A   22347.75342308  .00000559  00000+0  93001-4 0  9999
2 40958  97.7272  25.7335 0019381 101.5788 258.7589 14.73529798386386
ATHENOXAT 1             
1 41168U 15077C   22347.81187150  .00028034  00000+0  98293-3 0  9999
2 41168  14.9938 195.9013 0008093 254.2308 202.2624 15.27235141387702
GALASSIA                
1 41170U 15077E   22347.21539300  .00019197  00000+0  71608-3 0  9995
2 41170  14.9861 193.7604 0009768 269.3191  90.6012 15.24808913387507
VELOX-II                
1 41171U 15077F   22346.03436776  .00013637  00000+0  59786-3 0  9994
2 41171  14.9919 286.0991 0006992  68.1181 291.9884 15.18944303386685
CHUBUSAT-2              
1 41338U 16012B   22347.33337888  .00002997  00000+0  21571-3 0  9995
2 41338  31.0043 324.3407 0012894 129.7426 230.4348 15.02158691374398
CHUBUSAT-3              
1 41339U 16012C   22347.91812368  .00002788  00000+0  20014-3 0  9990
2 41339  31.0111 317.5373 0012662 143.5759 216.5758 15.02175498374481
HORYU-4                 
1 41340U 16012D   22347.24641603  .00005404  00000+0  36856-3 0  9999
2 41340  31.0053 296.2948 0012777 183.8859 176.1680 15.04649352374666
